{
  "type": "FeatureCollection",
  "features": [
    {
      "type": "Feature",
      "properties": {
        "norad_id": 37836,
        "name": "EUTELSAT 16A",
        "group": "eutelsat",
        "lat": -0.06667690688082126,
        "lon": -115.38877472457729,
        "alt_km": 35762.12551750555,
        "timestamp": "2025-12-12T09:49:08.399250+00:00",
        "meta_object_name": "EUTELSAT 16A",
        "meta_object_id": "2011-057A",
        "meta_epoch": "2025-12-12T03:17:00.645792",
        "meta_mean_motion": 1.00272084,
        "meta_eccentricity": 0.000602,
        "meta_inclination": 0.0593,
        "meta_ra_of_asc_node": 8.4471,
        "meta_arg_of_pericenter": 256.8063,
        "meta_mean_anomaly": 241.0867,
        "meta_ephemeris_type": 0,
        "meta_classification_type": "U",
        "meta_norad_cat_id": 37836,
        "meta_element_set_no": 999,
        "meta_rev_at_epoch": 545,
        "meta_bstar": 0,
        "meta_mean_motion_dot": 1.13e-06,
        "meta_mean_motion_ddot": 0,
        "tle_line1": "1 37836U 11057A   25346.13681303  .00000113  00000+0  00000+0 0  9999",
        "tle_line2": "2 37836   0.0593   8.4471 0006020 256.8063 241.0867  1.00272084  5454"
      },
      "geometry": {
        "type": "Point",
        "coordinates": [
          -115.38877472457729,
          -0.06667690688082126
        ]
      }
    },
    {
      "type": "Feature",
      "properties": {
        "norad_id": 38992,
        "name": "EUTELSAT 21B",
        "group": "eutelsat",
        "lat": -0.07858961242660457,
        "lon": -109.78111400638085,
        "alt_km": 35772.676903161606,
        "timestamp": "2025-12-12T09:49:08.399262+00:00",
        "meta_object_name": "EUTELSAT 21B",
        "meta_object_id": "2012-062B",
        "meta_epoch": "2025-12-12T03:18:37.990944",
        "meta_mean_motion": 1.00272222,
        "meta_eccentricity": 0.0003344,
        "meta_inclination": 0.0668,
        "meta_ra_of_asc_node": 4.6284,
        "meta_arg_of_pericenter": 266.0892,
        "meta_mean_anomaly": 241.6258,
        "meta_ephemeris_type": 0,
        "meta_classification_type": "U",
        "meta_norad_cat_id": 38992,
        "meta_element_set_no": 999,
        "meta_rev_at_epoch": 4795,
        "meta_bstar": 0,
        "meta_mean_motion_dot": 1.39e-06,
        "meta_mean_motion_ddot": 0,
        "tle_line1": "1 38992U 12062B   25346.13793971  .00000139  00000+0  00000+0 0  9993",
        "tle_line2": "2 38992   0.0668   4.6284 0003344 266.0892 241.6258  1.00272222 47955"
      },
      "geometry": {
        "type": "Point",
        "coordinates": [
          -109.78111400638085,
          -0.07858961242660457
        ]
      }
    },
    {
      "type": "Feature",
      "properties": {
        "norad_id": 39020,
        "name": "EUTELSAT 70B",
        "group": "eutelsat",
        "lat": -0.0557328442395552,
        "lon": -60.811437636185836,
        "alt_km": 35775.27490518635,
        "timestamp": "2025-12-12T09:49:08.399274+00:00",
        "meta_object_name": "EUTELSAT 70B",
        "meta_object_id": "2012-069A",
        "meta_epoch": "2025-12-12T03:32:29.164128",
        "meta_mean_motion": 1.00270851,
        "meta_eccentricity": 0.000431,
        "meta_inclination": 0.0627,
        "meta_ra_of_asc_node": 344.4219,
        "meta_arg_of_pericenter": 262.0301,
        "meta_mean_anomaly": 318.2825,
        "meta_ephemeris_type": 0,
        "meta_classification_type": "U",
        "meta_norad_cat_id": 39020,
        "meta_element_set_no": 999,
        "meta_rev_at_epoch": 4763,
        "meta_bstar": 0,
        "meta_mean_motion_dot": -3.4e-07,
        "meta_mean_motion_ddot": 0,
        "tle_line1": "1 39020U 12069A   25346.14755977 -.00000034  00000+0  00000+0 0  9993",
        "tle_line2": "2 39020   0.0627 344.4219 0004310 262.0301 318.2825  1.00270851 47633"
      },
      "geometry": {
        "type": "Point",
        "coordinates": [
          -60.811437636185836,
          -0.0557328442395552
        ]
      }
    },
    {
      "type": "Feature",
      "properties": {
        "norad_id": 39122,
        "name": "EUTELSAT 117 WEST A",
        "group": "eutelsat",
        "lat": 0.027640932169775662,
        "lon": 111.81234770986524,
        "alt_km": 35797.153907127904,
        "timestamp": "2025-12-12T09:49:08.399287+00:00",
        "meta_object_name": "EUTELSAT 117 WEST A",
        "meta_object_id": "2013-012A",
        "meta_epoch": "2025-12-12T03:46:38.737056",
        "meta_mean_motion": 1.00271534,
        "meta_eccentricity": 0.0002944,
        "meta_inclination": 0.015,
        "meta_ra_of_asc_node": 10.4942,
        "meta_arg_of_pericenter": 253.4678,
        "meta_mean_anomaly": 117.0003,
        "meta_ephemeris_type": 0,
        "meta_classification_type": "U",
        "meta_norad_cat_id": 39122,
        "meta_element_set_no": 999,
        "meta_rev_at_epoch": 4655,
        "meta_bstar": 0,
        "meta_mean_motion_dot": -3e-08,
        "meta_mean_motion_ddot": 0,
        "tle_line1": "1 39122U 13012A   25346.15739279 -.00000003  00000+0  00000+0 0  9999",
        "tle_line2": "2 39122   0.0150  10.4942 0002944 253.4678 117.0003  1.00271534 46554"
      },
      "geometry": {
        "type": "Point",
        "coordinates": [
          111.81234770986524,
          0.027640932169775662
        ]
      }
    },
    {
      "type": "Feature",
      "properties": {
        "norad_id": 39163,
        "name": "EUTELSAT 7B",
        "group": "eutelsat",
        "lat": -0.059028854848212235,
        "lon": -124.42201368555166,
        "alt_km": 35782.891700081425,
        "timestamp": "2025-12-12T09:49:08.399300+00:00",
        "meta_object_name": "EUTELSAT 7B",
        "meta_object_id": "2013-022A",
        "meta_epoch": "2025-12-12T03:14:30.886080",
        "meta_mean_motion": 1.00272809,
        "meta_eccentricity": 0.0004625,
        "meta_inclination": 0.0731,
        "meta_ra_of_asc_node": 20.1699,
        "meta_arg_of_pericenter": 297.0742,
        "meta_mean_anomaly": 179.4643,
        "meta_ephemeris_type": 0,
        "meta_classification_type": "U",
        "meta_norad_cat_id": 39163,
        "meta_element_set_no": 999,
        "meta_rev_at_epoch": 4608,
        "meta_bstar": 0,
        "meta_mean_motion_dot": 5.7e-07,
        "meta_mean_motion_ddot": 0,
        "tle_line1": "1 39163U 13022A   25346.13507970  .00000057  00000+0  00000+0 0  9992",
        "tle_line2": "2 39163   0.0731  20.1699 0004625 297.0742 179.4643  1.00272809 46081"
      },
      "geometry": {
        "type": "Point",
        "coordinates": [
          -124.42201368555166,
          -0.059028854848212235
        ]
      }
    },
    {
      "type": "Feature",
      "properties": {
        "norad_id": 39612,
        "name": "EXPRESS-AT1",
        "group": "eutelsat",
        "lat": -0.023036895178817508,
        "lon": -75.37620183832918,
        "alt_km": 35786.203178326614,
        "timestamp": "2025-12-12T09:49:08.399312+00:00",
        "meta_object_name": "EXPRESS-AT1",
        "meta_object_id": "2014-010A",
        "meta_epoch": "2025-12-12T03:28:29.548416",
        "meta_mean_motion": 1.00270061,
        "meta_eccentricity": 1.66e-05,
        "meta_inclination": 0.0172,
        "meta_ra_of_asc_node": 320.8716,
        "meta_arg_of_pericenter": 262.8726,
        "meta_mean_anomaly": 325.4628,
        "meta_ephemeris_type": 0,
        "meta_classification_type": "U",
        "meta_norad_cat_id": 39612,
        "meta_element_set_no": 999,
        "meta_rev_at_epoch": 4294,
        "meta_bstar": 0,
        "meta_mean_motion_dot": 0,
        "meta_mean_motion_ddot": 0,
        "tle_line1": "1 39612U 14010A   25346.14478644  .00000000  00000+0  00000+0 0  9993",
        "tle_line2": "2 39612   0.0172 320.8716 0000166 262.8726 325.4628  1.00270061 42942"
      },
      "geometry": {
        "type": "Point",
        "coordinates": [
          -75.37620183832918,
          -0.023036895178817508
        ]
      }
    },
    {
      "type": "Feature",
      "properties": {
        "norad_id": 39613,
        "name": "EXPRESS-AT2",
        "group": "eutelsat",
        "lat": 0.025764953424250815,
        "lon": 8.513918603982969,
        "alt_km": 35783.68174467817,
        "timestamp": "2025-12-12T09:49:08.399324+00:00",
        "meta_object_name": "EXPRESS-AT2",
        "meta_object_id": "2014-010B",
        "meta_epoch": "2025-12-12T05:35:04.028928",
        "meta_mean_motion": 1.002723,
        "meta_eccentricity": 0.0001465,
        "meta_inclination": 0.0164,
        "meta_ra_of_asc_node": 303.1942,
        "meta_arg_of_pericenter": 357.1365,
        "meta_mean_anomaly": 4.4809,
        "meta_ephemeris_type": 0,
        "meta_classification_type": "U",
        "meta_norad_cat_id": 39613,
        "meta_element_set_no": 999,
        "meta_rev_at_epoch": 4262,
        "meta_bstar": 0,
        "meta_mean_motion_dot": -2.71e-06,
        "meta_mean_motion_ddot": 0,
        "tle_line1": "1 39613U 14010B   25346.23268552 -.00000271  00000+0  00000+0 0  9990",
        "tle_line2": "2 39613   0.0164 303.1942 0001465 357.1365   4.4809  1.00272300 42627"
      },
      "geometry": {
        "type": "Point",
        "coordinates": [
          8.513918603982969,
          0.025764953424250815
        ]
      }
    }
  ]
}